{"type": "FeatureCollection", "features": [ {"type": "Feature", "properties": {"norad_id": 66887, "name": "STARLINK-35925", "group": "last-30-days", "lat": -49.301107943269116, "lon": -76.91790848039257, "alt_km": 342.6619259497884, "timestamp": "2025-12-18T23:35:47.782708+00:00", "meta": {"OBJECT_NAME": "STARLINK-35925", "OBJECT_ID": "2025-283K", "EPOCH": "2025-12-18T14:00:03.000384", "MEAN_MOTION": 15.78737465, "ECCENTRICITY": 9.12e-05, "INCLINATION": 53.1554, "RA_OF_ASC_NODE": 44.4071, "ARG_OF_PERICENTER": 71.5238, "MEAN_ANOMALY": 66.9688, "EPHEMERIS_TYPE": 0, "CLASSIFICATION_TYPE": "U", "NORAD_CAT_ID": 66887, "ELEMENT_SET_NO": 999, "REV_AT_EPOCH": 336, "BSTAR": -0.00849828, "MEAN_MOTION_DOT": -0.01358068, "MEAN_MOTION_DDOT": 0}, "tle": {"line1": "1 66887U 25283K   25352.58336806 -.01358068  00000+0 -84983-2 0  9997", "line2": "2 66887  53.1554  44.4071 0000912  71.5238  66.9688 15.78737465  3366"}}, "geometry": {"type": "Point", "coordinates": [-76.91790848039257, -49.301107943269116]}}, {"type": "Feature", "properties": {"norad_id": 66888, "name": "STARLINK-35919", "group": "last-30-days", "lat": -50.11419008368016, "lon": -73.79204894413863, "alt_km": 342.94101957059775, "timestamp": "2025-12-18T23:35:47.782720+00:00", "meta": {"OBJECT_NAME": "STARLINK-35919", "OBJECT_ID": "2025-283L", "EPOCH": "2025-12-18T14:00:03.000384", "MEAN_MOTION": 15.7868541, "ECCENTRICITY": 0.00010891, "INCLINATION": 53.1553, "RA_OF_ASC_NODE": 44.402, "ARG_OF_PERICENTER": 55.9228, "MEAN_ANOMALY": 84.8313, "EPHEMERIS_TYPE": 0, "CLASSIFICATION_TYPE": "U", "NORAD_CAT_ID": 66888, "ELEMENT_SET_NO": 999, "REV_AT_EPOCH": 336, "BSTAR": -0.0085186689, "MEAN_MOTION_DOT": -0.01358191, "MEAN_MOTION_DDOT": 0}, "tle": {"line1": "1 66888U 25283L   25352.58336806 -.01358191  00000+0 -85187-2 0  9992", "line2": "2 66888  53.1553  44.4020 0001089  55.9228  84.8313 15.78685410  3367"}}, "geometry": {"type": "Point", "coordinates": [-73.79204894413863, -50.11419008368016]}}, {"type": "Feature", "properties": {"norad_id": 66889, "name": "STARLINK-35852", "group": "last-30-days", "lat": -50.87972528259904, "lon": -70.37191191012295, "alt_km": 343.2969867947013, "timestamp": "2025-12-18T23:35:47.782731+00:00", "meta": {"OBJECT_NAME": "STARLINK-35852", "OBJECT_ID": "2025-283M", "EPOCH": "2025-12-18T14:00:03.000384", "MEAN_MOTION": 15.78615641, "ECCENTRICITY": 0.00012443, "INCLINATION": 53.1549, "RA_OF_ASC_NODE": 44.3964, "ARG_OF_PERICENTER": 58.1118, "MEAN_ANOMALY": 85.0663, "EPHEMERIS_TYPE": 0, "CLASSIFICATION_TYPE": "U", "NORAD_CAT_ID": 66889, "ELEMENT_SET_NO": 999, "REV_AT_EPOCH": 336, "BSTAR": -0.0086392622, "MEAN_MOTION_DOT": -0.0137152, "MEAN_MOTION_DDOT": 0}, "tle": {"line1": "1 66889U 25283M   25352.58336806 -.01371520  00000+0 -86393-2 0  9994", "line2": "2 66889  53.1549  44.3964 0001244  58.1118  85.0663 15.78615641  3365"}}, "geometry": {"type": "Point", "coordinates": [-70.37191191012295, -50.87972528259904]}}, {"type": "Feature", "properties": {"norad_id": 66890, "name": "STARLINK-35885", "group": "last-30-days", "lat": -51.527303788286005, "lon": -66.93366436187802, "alt_km": 343.40361886958726, "timestamp": "2025-12-18T23:35:47.782746+00:00", "meta": {"OBJECT_NAME": "STARLINK-35885", "OBJECT_ID": "2025-283N", "EPOCH": "2025-12-18T14:00:03.000384", "MEAN_MOTION": 15.78547021, "ECCENTRICITY": 0.00010841, "INCLINATION": 53.1553, "RA_OF_ASC_NODE": 44.3922, "ARG_OF_PERICENTER": 59.9657, "MEAN_ANOMALY": 85.5676, "EPHEMERIS_TYPE": 0, "CLASSIFICATION_TYPE": "U", "NORAD_CAT_ID": 66890, "ELEMENT_SET_NO": 999, "REV_AT_EPOCH": 336, "BSTAR": -0.008673489, "MEAN_MOTION_DOT": -0.01372441, "MEAN_MOTION_DDOT": 0}, "tle": {"line1": "1 66890U 25283N   25352.58336806 -.01372441  00000+0 -86735-2 0  9999", "line2": "2 66890  53.1553  44.3922 0001084  59.9657  85.5676 15.78547021  3360"}}, "geometry": {"type": "Point", "coordinates": [-66.93366436187802, -51.527303788286005]}}, {"type": "Feature", "properties": {"norad_id": 66891, "name": "STARLINK-35855", "group": "last-30-days", "lat": -52.0755686447129, "lon": -63.37405689763039, "alt_km": 343.8620166831133, "timestamp": "2025-12-18T23:35:47.782756+00:00", "meta": {"OBJECT_NAME": "STARLINK-35855", "OBJECT_ID": "2025-283P", "EPOCH": "2025-12-18T14:00:03.000384", "MEAN_MOTION": 15.7848408, "ECCENTRICITY": 0.0001401, "INCLINATION": 53.1556, "RA_OF_ASC_NODE": 44.387, "ARG_OF_PERICENTER": 67.4188, "MEAN_ANOMALY": 80.4916, "EPHEMERIS_TYPE": 0, "CLASSIFICATION_TYPE": "U", "NORAD_CAT_ID": 66891, "ELEMENT_SET_NO": 999, "REV_AT_EPOCH": 336, "BSTAR": -0.0088102075, "MEAN_MOTION_DOT": -0.01388327, "MEAN_MOTION_DDOT": 0}, "tle": {"line1": "1 66891U 25283P   25352.58336806 -.01388327  00000+0 -88102-2 0  9990", "line2": "2 66891  53.1556  44.3870 0001401  67.4188  80.4916 15.78484080  3368"}}, "geometry": {"type": "Point", "coordinates": [-63.37405689763039, -52.0755686447129]}}, {"type": "Feature", "properties": {"norad_id": 66892, "name": "STARLINK-35883", "group": "last-30-days", "lat": -52.505632674518566, "lon": -59.805861302227704, "alt_km": 343.67416338125713, "timestamp": "2025-12-18T23:35:47.782767+00:00", "meta": {"OBJECT_NAME": "STARLINK-35883", "OBJECT_ID": "2025-283Q", "EPOCH": "2025-12-18T14:00:03.000384", "MEAN_MOTION": 15.78423144, "ECCENTRICITY": 8.79e-05, "INCLINATION": 53.1551, "RA_OF_ASC_NODE": 44.3818, "ARG_OF_PERICENTER": 67.6429, "MEAN_ANOMALY": 82.5938, "EPHEMERIS_TYPE": 0, "CLASSIFICATION_TYPE": "U", "NORAD_CAT_ID": 66892, "ELEMENT_SET_NO": 999, "REV_AT_EPOCH": 330, "BSTAR": -0.0088909424, "MEAN_MOTION_DOT": -0.01395887, "MEAN_MOTION_DDOT": 0}, "tle": {"line1": "1 66892U 25283Q   25352.58336806 -.01395887  00000+0 -88909-2 0  9995", "line2": "2 66892  53.1551  44.3818 0000879  67.6429  82.5938 15.78423144  3309"}}, "geometry": {"type": "Point", "coordinates": [-59.805861302227704, -52.505632674518566]}}, {"type": "Feature", "properties": {"norad_id": 66893, "name": "STARLINK-36033", "group": "last-30-days", "lat": -52.82225586168556, "lon": -56.23571179224815, "alt_km": 343.93517253432947, "timestamp": "2025-12-18T23:35:47.782777+00:00", "meta": {"OBJECT_NAME": "STARLINK-36033", "OBJECT_ID": "2025-283R", "EPOCH": "2025-12-18T14:00:03.000384", "MEAN_MOTION": 15.78379993, "ECCENTRICITY": 9.789e-05, "INCLINATION": 53.1551, "RA_OF_ASC_NODE": 44.3771, "ARG_OF_PERICENTER": 67.1362, "MEAN_ANOMALY": 85.3784, "EPHEMERIS_TYPE": 0, "CLASSIFICATION_TYPE": "U", "NORAD_CAT_ID": 66893, "ELEMENT_SET_NO": 999, "REV_AT_EPOCH": 336, "BSTAR": -0.0091125577, "MEAN_MOTION_DOT": -0.01424304, "MEAN_MOTION_DDOT": 0}, "tle": {"line1": "1 66893U 25283R   25352.58336806 -.01424304  00000+0 -91126-2 0  9998", "line2": "2 66893  53.1551  44.3771 0000978  67.1362  85.3784 15.78379993  3367"}}, "geometry": {"type": "Point", "coordinates": [-56.23571179224815, -52.82225586168556]}}, {"type": "Feature", "properties": {"norad_id": 66894, "name": "STARLINK-35718", "group": "last-30-days", "lat": -53.042465225861015, "lon": -52.32352521932419, "alt_km": 344.6103533483674, "timestamp": "2025-12-18T23:35:47.782787+00:00", "meta": {"OBJECT_NAME": "STARLINK-35718", "OBJECT_ID": "2025-283S", "EPOCH": "2025-12-18T14:00:03.000384", "MEAN_MOTION": 15.78291517, "ECCENTRICITY": 0.00013678, "INCLINATION": 53.1553, "RA_OF_ASC_NODE": 44.3724, "ARG_OF_PERICENTER": 68.4259, "MEAN_ANOMALY": 86.6228, "EPHEMERIS_TYPE": 0, "CLASSIFICATION_TYPE": "U", "NORAD_CAT_ID": 66894, "ELEMENT_SET_NO": 999, "REV_AT_EPOCH": 336, "BSTAR": -0.0094773608, "MEAN_MOTION_DOT": -0.01469623, "MEAN_MOTION_DDOT": 0}, "tle": {"line1": "1 66894U 25283S   25352.58336806 -.01469623  00000+0 -94774-2 0  9994", "line2": "2 66894  53.1553  44.3724 0001367  68.4259  86.6228 15.78291517  3362"}}, "geometry": {"type": "Point", "coordinates": [-52.32352521932419, -53.042465225861015]}}, {"type": "Feature", "properties": {"norad_id": 66895, "name": "STARLINK-35971", "group": "last-30-days", "lat": -53.10534641500443, "lon": -44.9921877193623, "alt_km": 345.06018815981406, "timestamp": "2025-12-18T23:35:47.782801+00:00", "meta": {"OBJECT_NAME": "STARLINK-35971", "OBJECT_ID": "2025-283T", "EPOCH": "2025-12-18T14:00:03.000384", "MEAN_MOTION": 15.78152858, "ECCENTRICITY": 0.00012606, "INCLINATION": 53.1547, "RA_OF_ASC_NODE": 44.3614, "ARG_OF_PERICENTER": 68.3047, "MEAN_ANOMALY": 91.4003, "EPHEMERIS_TYPE": 0, "CLASSIFICATION_TYPE": "U", "NORAD_CAT_ID": 66895, "ELEMENT_SET_NO": 999, "REV_AT_EPOCH": 336, "BSTAR": -0.0099281589, "MEAN_MOTION_DOT": -0.01522407, "MEAN_MOTION_DDOT": 0}, "tle": {"line1": "1 66895U 25283T   25352.58336806 -.01522407  00000+0 -99282-2 0  9994", "line2": "2 66895  53.1547  44.3614 0001260  68.3047  91.4003 15.78152858  3369"}}, "geometry": {"type": "Point", "coordinates": [-44.9921877193623, -53.10534641500443]}}, {"type": "Feature", "properties": {"norad_id": 66896, "name": "STARLINK-35791", "group": "last-30-days", "lat": -53.131278128986004, "lon": -48.58041940750215, "alt_km": 344.76380212194, "timestamp": "2025-12-18T23:35:47.782811+00:00", "meta": {"OBJECT_NAME": "STARLINK-35791", "OBJECT_ID": "2025-283U", "EPOCH": "2025-12-18T14:00:03.000384", "MEAN_MOTION": 15.78219499, "ECCENTRICITY": 0.00011406, "INCLINATION": 53.1552, "RA_OF_ASC_NODE": 44.3664, "ARG_OF_PERICENTER": 67.436, "MEAN_ANOMALY": 90.002, "EPHEMERIS_TYPE": 0, "CLASSIFICATION_TYPE": "U", "NORAD_CAT_ID": 66896, "ELEMENT_SET_NO": 999, "REV_AT_EPOCH": 336, "BSTAR": -0.0097988785, "MEAN_MOTION_DOT": -0.01508916, "MEAN_MOTION_DDOT": 0}, "tle": {"line1": "1 66896U 25283U   25352.58336806 -.01508916  00000+0 -97989-2 0  9996", "line2": "2 66896  53.1552  44.3664 0001140  67.4360  90.0020 15.78219499  3365"}}, "geometry": {"type": "Point", "coordinates": [-48.58041940750215, -53.131278128986004]}}]}